{
  "type": "FeatureCollection",
  "features": [
    {
      "type": "Feature",
      "properties": {
        "norad_id": 66618,
        "name": "STARLINK-35970",
        "group": "last-30-days",
        "lat": -4.990449773583258,
        "lon": 125.89626776768367,
        "alt_km": 434.72021247088924,
        "timestamp": "2025-12-24T18:55:54.774590+00:00",
        "meta_object_name": "STARLINK-35970",
        "meta_object_id": "2025-271B",
        "meta_epoch": "2025-12-24T08:00:03.000384",
        "meta_mean_motion": 15.45967453,
        "meta_eccentricity": 0.00010243,
        "meta_inclination": 53.1598,
        "meta_ra_of_asc_node": 131.8147,
        "meta_arg_of_pericenter": 86.5653,
        "meta_mean_anomaly": 252.3115,
        "meta_ephemeris_type": 0,
        "meta_classification_type": "U",
        "meta_norad_cat_id": 66618,
        "meta_element_set_no": 999,
        "meta_rev_at_epoch": 610,
        "meta_bstar": -0.03571978,
        "meta_mean_motion_dot": -0.01590316,
        "meta_mean_motion_ddot": 0,
        "tle_line1": "1 66618U 25271B   25358.33336806 -.01590316  00000+0 -35720-1 0  9993",
        "tle_line2": "2 66618  53.1598 131.8147 0001024  86.5653 252.3115 15.45967453  6100"
      },
      "geometry": {
        "type": "Point",
        "coordinates": [
          125.89626776768367,
          -4.990449773583258
        ]
      }
    },
    {
      "type": "Feature",
      "properties": {
        "norad_id": 66619,
        "name": "STARLINK-35951",
        "group": "last-30-days",
        "lat": -51.343185196642686,
        "lon": 19.441481575523255,
        "alt_km": 452.8988166131139,
        "timestamp": "2025-12-24T18:55:54.774600+00:00",
        "meta_object_name": "STARLINK-35951",
        "meta_object_id": "2025-271C",
        "meta_epoch": "2025-12-24T08:00:03.000384",
        "meta_mean_motion": 15.39574084,
        "meta_eccentricity": 0.00014547,
        "meta_inclination": 53.1598,
        "meta_ra_of_asc_node": 131.993,
        "meta_arg_of_pericenter": 95.1147,
        "meta_mean_anomaly": 156.4277,
        "meta_ephemeris_type": 0,
        "meta_classification_type": "U",
        "meta_norad_cat_id": 66619,
        "meta_element_set_no": 999,
        "meta_rev_at_epoch": 610,
        "meta_bstar": 0.0017264414,
        "meta_mean_motion_dot": 0.00069181,
        "meta_mean_motion_ddot": 0,
        "tle_line1": "1 66619U 25271C   25358.33336806  .00069181  00000+0  17264-2 0  9996",
        "tle_line2": "2 66619  53.1598 131.9930 0001454  95.1147 156.4277 15.39574084  6103"
      },
      "geometry": {
        "type": "Point",
        "coordinates": [
          19.441481575523255,
          -51.343185196642686
        ]
      }
    },
    {
      "type": "Feature",
      "properties": {
        "norad_id": 66620,
        "name": "STARLINK-35936",
        "group": "last-30-days",
        "lat": -20.531152259409676,
        "lon": -33.743600515859924,
        "alt_km": 450.67554617608494,
        "timestamp": "2025-12-24T18:55:54.774610+00:00",
        "meta_object_name": "STARLINK-35936",
        "meta_object_id": "2025-271D",
        "meta_epoch": "2025-12-24T08:00:03.000384",
        "meta_mean_motion": 15.3957838,
        "meta_eccentricity": 9.526e-05,
        "meta_inclination": 53.1602,
        "meta_ra_of_asc_node": 132.0969,
        "meta_arg_of_pericenter": 79.2289,
        "meta_mean_anomaly": 120.8103,
        "meta_ephemeris_type": 0,
        "meta_classification_type": "U",
        "meta_norad_cat_id": 66620,
        "meta_element_set_no": 999,
        "meta_rev_at_epoch": 610,
        "meta_bstar": 0.001709683,
        "meta_mean_motion_dot": 0.00068509,
        "meta_mean_motion_ddot": 0,
        "tle_line1": "1 66620U 25271D   25358.33336806  .00068509  00000+0  17097-2 0  9995",
        "tle_line2": "2 66620  53.1602 132.0969 0000952  79.2289 120.8103 15.39578380  6103"
      },
      "geometry": {
        "type": "Point",
        "coordinates": [
          -33.743600515859924,
          -20.531152259409676
        ]
      }
    },
    {
      "type": "Feature",
      "properties": {
        "norad_id": 66621,
        "name": "STARLINK-35847",
        "group": "last-30-days",
        "lat": -1.6088540851872204,
        "lon": 128.43392592991088,
        "alt_km": 430.9255587379703,
        "timestamp": "2025-12-24T18:55:54.774620+00:00",
        "meta_object_name": "STARLINK-35847",
        "meta_object_id": "2025-271E",
        "meta_epoch": "2025-12-24T08:00:03.000384",
        "meta_mean_motion": 15.45475244,
        "meta_eccentricity": 0.00012847,
        "meta_inclination": 53.1598,
        "meta_ra_of_asc_node": 131.8065,
        "meta_arg_of_pericenter": 92.3548,
        "meta_mean_anomaly": 250.1916,
        "meta_ephemeris_type": 0,
        "meta_classification_type": "U",
        "meta_norad_cat_id": 66621,
        "meta_element_set_no": 999,
        "meta_rev_at_epoch": 610,
        "meta_bstar": 0.0019717158,
        "meta_mean_motion_dot": 0.00096773,
        "meta_mean_motion_ddot": 0,
        "tle_line1": "1 66621U 25271E   25358.33336806  .00096773  00000+0  19717-2 0  9991",
        "tle_line2": "2 66621  53.1598 131.8065 0001284  92.3548 250.1916 15.45475244  6106"
      },
      "geometry": {
        "type": "Point",
        "coordinates": [
          128.43392592991088,
          -1.6088540851872204
        ]
      }
    },
    {
      "type": "Feature",
      "properties": {
        "norad_id": 66622,
        "name": "STARLINK-35950",
        "group": "last-30-days",
        "lat": 38.54929062152494,
        "lon": -86.578606547227,
        "alt_km": 441.5044964837971,
        "timestamp": "2025-12-24T18:55:54.774634+00:00",
        "meta_object_name": "STARLINK-35950",
        "meta_object_id": "2025-271F",
        "meta_epoch": "2025-12-24T02:47:46.309344",
        "meta_mean_motion": 15.39636981,
        "meta_eccentricity": 8.937e-05,
        "meta_inclination": 53.1619,
        "meta_ra_of_asc_node": 133.2717,
        "meta_arg_of_pericenter": 81.3415,
        "meta_mean_anomaly": 278.7691,
        "meta_ephemeris_type": 0,
        "meta_classification_type": "U",
        "meta_norad_cat_id": 66622,
        "meta_element_set_no": 999,
        "meta_rev_at_epoch": 596,
        "meta_bstar": 0.0015476928,
        "meta_mean_motion_dot": 0.00062047,
        "meta_mean_motion_ddot": 0,
        "tle_line1": "1 66622U 25271F   25358.11650821  .00062047  00000+0  15477-2 0  9990",
        "tle_line2": "2 66622  53.1619 133.2717 0000893  81.3415 278.7691 15.39636981  5966"
      },
      "geometry": {
        "type": "Point",
        "coordinates": [
          -86.578606547227,
          38.54929062152494
        ]
      }
    },
    {
      "type": "Feature",
      "properties": {
        "norad_id": 66623,
        "name": "STARLINK-35920",
        "group": "last-30-days",
        "lat": 51.281126190839764,
        "lon": -160.54556114206952,
        "alt_km": 438.61476287822825,
        "timestamp": "2025-12-24T18:55:54.774645+00:00",
        "meta_object_name": "STARLINK-35920",
        "meta_object_id": "2025-271G",
        "meta_epoch": "2025-12-24T04:34:37.527168",
        "meta_mean_motion": 15.39635267,
        "meta_eccentricity": 0.00022835,
        "meta_inclination": 53.1607,
        "meta_ra_of_asc_node": 133.0223,
        "meta_arg_of_pericenter": 85.3238,
        "meta_mean_anomaly": 274.8028,
        "meta_ephemeris_type": 0,
        "meta_classification_type": "U",
        "meta_norad_cat_id": 66623,
        "meta_element_set_no": 999,
        "meta_rev_at_epoch": 597,
        "meta_bstar": 0.0010522466,
        "meta_mean_motion_dot": 0.00041944,
        "meta_mean_motion_ddot": 0,
        "tle_line1": "1 66623U 25271G   25358.19071212  .00041944  00000+0  10522-2 0  9999",
        "tle_line2": "2 66623  53.1607 133.0223 0002283  85.3238 274.8028 15.39635267  5974"
      },
      "geometry": {
        "type": "Point",
        "coordinates": [
          -160.54556114206952,
          51.281126190839764
        ]
      }
    },
    {
      "type": "Feature",
      "properties": {
        "norad_id": 66624,
        "name": "STARLINK-35927",
        "group": "last-30-days",
        "lat": -51.223573219402276,
        "lon": 60.851174931718056,
        "alt_km": 452.5356758203661,
        "timestamp": "2025-12-24T18:55:54.774655+00:00",
        "meta_object_name": "STARLINK-35927",
        "meta_object_id": "2025-271H",
        "meta_epoch": "2025-12-24T08:00:03.000384",
        "meta_mean_motion": 15.39545425,
        "meta_eccentricity": 9.784e-05,
        "meta_inclination": 53.1603,
        "meta_ra_of_asc_node": 131.9426,
        "meta_arg_of_pericenter": 131.5083,
        "meta_mean_anomaly": 145.6877,
        "meta_ephemeris_type": 0,
        "meta_classification_type": "U",
        "meta_norad_cat_id": 66624,
        "meta_element_set_no": 999,
        "meta_rev_at_epoch": 610,
        "meta_bstar": 0.0025235088,
        "meta_mean_motion_dot": 0.00101644,
        "meta_mean_motion_ddot": 0,
        "tle_line1": "1 66624U 25271H   25358.33336806  .00101644  00000+0  25235-2 0  9990",
        "tle_line2": "2 66624  53.1603 131.9426 0000978 131.5083 145.6877 15.39545425  6103"
      },
      "geometry": {
        "type": "Point",
        "coordinates": [
          60.851174931718056,
          -51.223573219402276
        ]
      }
    }
  ]
}